EUTELSAT QUANTUM        
1 49056U 21069B   25237.89634972  .00000119  00000+0  00000+0 0  9998
2 49056   0.0043  71.8670 0001887 102.3361 170.5566  1.00273300 14968
EUTELSAT KONNECT VHTS   
1 53765U 22110A   25237.60190931  .00000009  00000+0  00000+0 0  9997
2 53765   0.0588 103.5159 0002646  40.3280  49.6552  1.00271038  3868
EUTELSAT HOTBIRD 13F    
1 54048U 22134A   25237.93517102  .00000080  00000+0  00000+0 0  9996
2 54048   0.0551 293.7063 0002015  68.8537 321.5329  1.00271941 10415
EUTELSAT HOTBIRD 13G    
1 54225U 22146A   25237.93517102  .00000080  00000+0  00000+0 0  9996
2 54225   0.0522 235.8434 0002012 302.1917 146.0429  1.00271823  4505
EUTELSAT 10B            
1 54259U 22157A   25237.74610219  .00000060  00000+0  00000+0 0  9995
2 54259   0.0549 101.5927 0001604  26.0428 125.1765  1.00268744 10058
EUTELSAT 36D            
1 59346U 24059A   25237.92405839  .00000149  00000+0  00000+0 0  9998
2 59346   0.0045 208.3149 0000191 289.5469 205.0739  1.00271264  5182
